{"type":"FeatureCollection","features":[{"type":"Feature","properties":{"adm0_a3":"GBR","su_a3":"ENG","name":"England"},"geometry":{"type":"MultiPolygon","coordinates":[[[[-1.065576171875023,50.69023437499996],[-1.149365234374926,50.655712890624955],[-1.175830078124989,50.61523437500006],[-1.19609375,50.59921874999998],[-1.251464843749943,50.58881835937501],[-1.306298828124937,50.58852539062502],[-1.515332031249983,50.66977539062498],[-1.563427734374926,50.666113281250034],[-1.51567382812496,50.70332031249998],[-1.385839843749977,50.733544921874994],[-1.312792968749932,50.77348632812496],[-1.144238281249955,50.73471679687506],[-1.065576171875023,50.69023437499996]]],[[[-2.667675781249983,51.62299804687501],[-2.673730468749994,51.63847656249996],[-2.677636718749994,51.75903320312503],[-2.662304687499955,51.80224609375003],[-2.69316406249996,51.83095703125002],[-2.762646484374983,51.86235351562502],[-2.834863281249937,51.90571289062498],[-2.90727539062496,51.920263671875006],[-2.953515624999966,51.91450195312498],[-3.012646484374926,51.9515625],[-3.064941406250028,52.00034179687498],[-3.106689453125,52.064746093750045],[-3.114208984374926,52.09404296874996],[-3.11279296875,52.11953125000002],[-3.096093749999966,52.15961914062501],[-3.094042968749989,52.18398437499999],[-3.054687499999972,52.22016601562498],[-2.991992187499989,52.25727539062501],[-2.974804687499955,52.272265625000045],[-2.971679687499943,52.29155273437496],[-2.975537109374926,52.316064453124994],[-3.016503906249994,52.342675781249994],[-3.135937500000011,52.38125],[-3.203564453124926,52.422216796875034],[-3.21132812499999,52.44008789062502],[-3.203125,52.458642578124994],[-3.1539062499999,52.48051757812502],[-3.071191406249966,52.495947265625034],[-3.00693359374992,52.51645507812506],[-2.984960937499977,52.54272460937497],[-2.997314453125,52.55966796875006],[-3.101171874999949,52.55683593750001],[-3.114648437499937,52.57426757812502],[-3.027001953125023,52.67612304687498],[-2.988720703124955,52.714697265625034],[-2.986572265624943,52.743945312500045],[-3.14360351562496,52.80561523437498],[-3.150146484374972,52.82475585937499],[-3.11508789062492,52.87143554687498],[-3.040087890624932,52.93159179687498],[-2.981152343750011,52.95185546875001],[-2.82011718749996,52.920947265625045],[-2.754248046874949,52.91225585937505],[-2.720605468749937,52.92802734374996],[-2.725439453124949,52.950634765624955],[-2.772753906249989,52.97758789062502],[-2.830371093749932,53.00239257812501],[-2.927539062499989,53.12397460937501],[-2.941601562499926,53.145751953125],[-2.935742187499983,53.16220703124998],[-2.924218749999937,53.186279296875],[-2.976171874999949,53.221875],[-3.055175781249972,53.25366210937506],[-3.097558593749994,53.26030273437499],[-3.165576171874989,53.394677734374994],[-3.064746093749989,53.42685546874998],[-2.918554687499949,53.30537109375001],[-2.864160156249966,53.29257812499998],[-2.749511718749972,53.31020507812502],[-2.79375,53.33071289062502],[-2.845410156249955,53.331933593749994],[-2.9130859375,53.350244140624994],[-2.969970703124943,53.389208984375045],[-3.064599609374937,53.512841796874994],[-3.059472656249966,53.586230468750045],[-2.995703124999949,53.66254882812504],[-2.92509765624996,53.732763671875034],[-2.984326171874926,53.74672851562505],[-3.031787109374932,53.77358398437502],[-3.045361328124926,53.843847656250034],[-3.026757812499966,53.905908203124966],[-2.899853515624955,53.96069335937503],[-2.862402343749977,54.043847656249994],[-2.846484375000017,54.13530273437499],[-2.867578124999966,54.17724609375],[-2.993505859374949,54.17050781250006],[-3.054736328124989,54.153417968750034],[-3.109667968749989,54.126318359375006],[-3.165966796874983,54.1279296875],[-3.321533203124972,54.229101562500006],[-3.41025390624992,54.305615234374955],[-3.569384765624932,54.46757812499999],[-3.592041015625028,54.564355468749994],[-3.464599609375,54.773095703124966],[-3.267919921874977,54.906591796875006],[-3.036230468749949,54.953076171874955],[-3.0810546875,54.96196289062499],[-3.039453124999966,55.01508789062498],[-2.989941406249926,55.045751953125006],[-2.939160156249983,55.056738281250034],[-2.84873046874992,55.11284179687502],[-2.676806640624989,55.198632812499994],[-2.543798828124977,55.31679687499999],[-2.479443359374926,55.350830078125],[-2.410546875000023,55.36166992187498],[-2.347314453125023,55.37836914062501],[-2.202783203124966,55.445654296875034],[-2.193603515624972,55.46386718750003],[-2.244042968749937,55.537207031250034],[-2.32114257812492,55.627685546875],[-2.313427734374955,55.639257812500034],[-2.274121093749926,55.648388671874955],[-2.197314453125017,55.69077148437506],[-2.048242187500023,55.80004882812503],[-2.016845703125,55.807958984375034],[-1.830273437499926,55.671728515625006],[-1.728759765624943,55.618554687499994],[-1.655371093750006,55.570361328125045],[-1.610156249999932,55.49809570312499],[-1.522558593749949,55.25952148437506],[-1.422656249999932,55.02641601562499],[-1.291748046875,54.773876953124955],[-1.232421874999972,54.70371093750006],[-1.154394531249977,54.65449218749998],[-0.75932617187496,54.54140625000002],[-0.67138671875,54.50390625000003],[-0.518115234374932,54.39511718749998],[-0.370361328124943,54.279199218749994],[-0.232861328124926,54.190136718749955],[-0.084375,54.11806640625002],[-0.15629882812496,54.080615234375045],[-0.205566406249943,54.02172851562503],[-0.16875,53.94165039062506],[-0.10825195312492,53.86518554687501],[0.010546875000017,53.74282226562505],[0.115332031250063,53.60927734375002],[0.076708984374989,53.629443359375045],[0.036083984375068,53.640527343749994],[-0.019433593749966,53.63720703125003],[-0.07373046875,53.643652343750006],[-0.173828124999972,53.685449218749994],[-0.270019531249943,53.73676757812498],[-0.461376953124926,53.716162109375034],[-0.567675781250017,53.72539062499996],[-0.659912109374972,53.72402343750005],[-0.485058593749955,53.694384765625045],[-0.293701171874972,53.69233398437498],[0.128320312500023,53.46826171874997],[0.270996093750057,53.33549804687502],[0.355761718750017,53.15996093749996],[0.298046875000068,53.08110351562499],[0.208203125000068,53.03002929687506],[0.124414062500051,52.97158203125005],[0.045898437500028,52.905615234375006],[0.279785156249972,52.80869140624998],[0.330175781250034,52.81162109375006],[0.381933593750006,52.82519531249997],[0.431640625,52.85815429687503],[0.515527343750051,52.93837890625002],[0.558789062500068,52.966943359374994],[0.704492187499994,52.977246093749955],[0.826757812500034,52.97109375000002],[0.948535156250074,52.95336914062497],[1.055566406250023,52.95898437500006],[1.271289062500017,52.92456054687497],[1.382128906250017,52.89350585937504],[1.656738281250028,52.75371093749999],[1.716113281250045,52.67724609375003],[1.743359374999983,52.57851562499999],[1.746582031250028,52.46899414062497],[1.70039062500004,52.368896484375],[1.647363281250051,52.27851562499998],[1.614648437500051,52.16181640625001],[1.591406250000034,52.119775390624966],[1.55898437499999,52.08686523437501],[1.413476562500023,51.994775390624994],[1.316796875000051,51.95693359375002],[1.275976562499977,51.97353515625002],[1.232421875,51.97124023437499],[1.227832031250045,51.94912109375002],[1.27382812500008,51.90209960937503],[1.274414062500028,51.84536132812502],[1.1884765625,51.803369140624994],[1.101171874999977,51.78544921874999],[0.955078124999972,51.80781250000001],[0.752246093750045,51.72958984375006],[0.898046875,51.689404296874955],[0.92744140625004,51.64663085937502],[0.890917968750045,51.571435546874994],[0.799218750000023,51.53789062499999],[0.697558593750017,51.523046875],[0.59345703125004,51.51948242187498],[0.507226562500051,51.501074218750034],[0.424511718750068,51.465625],[0.5283203125,51.484472656250034],[0.600292968750011,51.467968749999955],[0.645507812500057,51.40468750000005],[0.686523437499972,51.38657226562498],[0.889355468750011,51.359521484374994],[1.014941406250017,51.359716796875034],[1.257128906250045,51.37509765625006],[1.373437500000023,51.37470703124998],[1.414941406250051,51.36328125000003],[1.415625,51.31083984375002],[1.397558593750063,51.182031249999966],[1.365527343750017,51.15546874999998],[1.044433593749972,51.047265624999966],[0.978613281250063,50.97167968750003],[0.96015625000004,50.925878906250006],[0.772363281250051,50.933984374999966],[0.684375,50.88554687499996],[0.532324218750006,50.853417968749994],[0.41474609375004,50.819189453125034],[0.299707031250051,50.775976562500034],[0.205078125000028,50.76303710937506],[-0.20390625,50.81435546875002],[-0.45078125,50.81015624999998],[-0.78525390624992,50.76542968750002],[-0.87138671874996,50.772802734375006],[-1.00058593749992,50.815625],[-1.13286132812496,50.84458007812506],[-1.285058593749966,50.857324218749994],[-1.416455078124983,50.896875],[-1.33447265625,50.82080078125],[-1.516748046874994,50.747460937499994],[-1.600830078125,50.73286132812504],[-1.687890624999966,50.73515625],[-1.866015624999932,50.71523437499999],[-2.03105468749996,50.72539062500002],[-2.00625,50.673242187499966],[-1.962060546874937,50.627783203125034],[-1.997900390624977,50.608007812500006],[-2.035839843749983,50.60307617187499],[-2.35014648437496,50.637402343749955],[-2.394677734374966,50.63090820312496],[-2.433447265624977,50.59921874999998],[-2.547753906249994,50.616308593750006],[-2.658837890624966,50.66972656249996],[-2.776953124999977,50.70556640624997],[-2.90087890625,50.72241210937503],[-2.999414062499994,50.71660156250002],[-3.404589843749932,50.632421875],[-3.485449218749977,50.547949218750034],[-3.525878906249943,50.428173828124955],[-3.584375,50.32182617187496],[-3.679785156249949,50.23994140624998],[-3.79335937499999,50.22924804687503],[-3.900195312500017,50.28593750000002],[-4.103417968749937,50.348535156249994],[-4.172558593749983,50.39082031249998],[-4.194580078124943,50.39331054687506],[-4.217285156249943,50.378173828125],[-4.29697265624992,50.35908203125001],[-4.379492187499949,50.35820312500002],[-4.50668945312492,50.341357421875045],[-4.727978515624983,50.29047851562498],[-4.8173828125,50.255957031250034],[-5.009521484374972,50.160742187500006],[-5.048632812499932,50.134375],[-5.118505859374949,50.03833007812503],[-5.225244140624937,50.02138671875005],[-5.322851562499949,50.08295898437498],[-5.433984374999937,50.10444335937498],[-5.551220703124926,50.083398437499966],[-5.622119140624989,50.050683593749966],[-5.655175781249966,50.07724609375006],[-5.65625,50.13188476562499],[-5.570654296874977,50.19697265625001],[-5.34228515625,50.24614257812499],[-5.141796875000011,50.37373046874998],[-5.043457031249943,50.451513671875006],[-5.004443359374989,50.49526367187505],[-4.956396484374977,50.52314453125004],[-4.893554687499972,50.53369140625006],[-4.861279296874955,50.58203125000003],[-4.582910156249994,50.77636718750003],[-4.559960937499937,50.82094726562505],[-4.546093749999955,50.900683593750045],[-4.523095703124994,50.97744140625005],[-4.29648437499992,51.027148437500045],[-4.188183593749955,51.18852539062496],[-4.158398437499926,51.201318359374994],[-3.842333984374932,51.23090820312498],[-3.607910156249972,51.228564453125045],[-3.375097656249977,51.19697265625001],[-3.255761718749994,51.194140625000045],[-3.135986328125,51.205029296874955],[-3.04204101562496,51.248583984375045],[-2.88125,51.405664062499966],[-2.79082031249996,51.47480468750001],[-2.687207031249983,51.53725585937505],[-2.590283203124955,51.60859375000001],[-2.433056640624983,51.74072265625003],[-2.53935546874996,51.695214843749994],[-2.667675781249983,51.62299804687501]]]]}},{"type":"Feature","properties":{"adm0_a3":"FRA","su_a3":"FXC","name":"Corsica"},"geometry":{"type":"Polygon","coordinates":[[[9.480371093750023,42.805419921875],[9.454199218750006,42.65859375],[9.473242187500006,42.615576171875],[9.509375,42.585595703124994],[9.526171875000017,42.552636718749994],[9.556445312500017,42.1609375],[9.550683593750023,42.129736328125],[9.428417968750011,41.972412109375],[9.40087890625,41.926220703125],[9.394824218750017,41.731201171875],[9.374218750000011,41.67880859375],[9.330859375000017,41.6271484375],[9.25341796875,41.46005859375],[9.186132812500006,41.384912109374994],[9.003027343750006,41.4765625],[8.89501953125,41.516162109374996],[8.842089843750017,41.558886718749996],[8.807519531250023,41.58837890625],[8.829785156250011,41.627685546875],[8.879003906250006,41.6685546875],[8.886816406250006,41.70068359375],[8.77099609375,41.737109375],[8.717968750000011,41.76142578125],[8.718652343750023,41.804003906249996],[8.758691406250023,41.870410156249996],[8.740429687500011,41.925146484375],[8.673632812500017,41.92236328125],[8.621875,41.930712890624996],[8.615136718750023,41.959130859374994],[8.653417968750006,41.995556640625],[8.702539062500023,42.043115234374994],[8.700976562500017,42.095605468749994],[8.6416015625,42.118212890624996],[8.587792968750023,42.16083984375],[8.566210937500017,42.218798828124996],[8.60791015625,42.258447265624994],[8.675488281250011,42.284033203125],[8.625878906250023,42.343408203124994],[8.592382812500006,42.3447265625],[8.565625,42.357714843749996],[8.5875,42.385302734374996],[8.640039062500023,42.4265625],[8.713085937500011,42.549755859375],[8.814843750000023,42.60791015625],[8.994921875000017,42.6453125],[9.043652343750011,42.661669921874996],[9.08837890625,42.704980468749994],[9.137890625000011,42.73291015625],[9.198046875000017,42.72919921875],[9.253515625,42.712451171874996],[9.287695312500006,42.694628906249996],[9.313378906250023,42.713183593749996],[9.33837890625,42.766894531249996],[9.323046875000017,42.8140625],[9.330957031250023,42.943798828125],[9.363183593750023,43.017382812499996],[9.415234375000011,43.021484375],[9.463281250000023,42.981005859374996],[9.460839843750023,42.945214843749994],[9.478613281250006,42.860498046874994],[9.480371093750023,42.805419921875]]]}},{"type":"Feature","properties":{"adm0_a3":"FRA","su_a3":"FXX","name":"France"},"geometry":{"type":"MultiPolygon","coordinates":[[[[1.7060546875,42.503320312499994],[1.713964843750006,42.525634765625],[1.740234374999972,42.556738281250034],[1.739453124999983,42.57592773437503],[1.709863281249994,42.60444335937498],[1.568164062500017,42.635009765625],[1.501367187500023,42.642724609374994],[1.458886718750023,42.621679687500034],[1.428320312500006,42.5958984375],[1.349414062500017,42.690673828125],[1.293261718750017,42.7099609375],[1.208300781250017,42.713134765625],[1.111132812500017,42.742041015625],[1.010058593750017,42.778955078124994],[0.764453125000017,42.838037109374994],[0.696875,42.845117187499994],[0.669824218750023,42.835742187499996],[0.651757812499994,42.80043945312502],[0.641992187500023,42.700634765625],[0.631640625000017,42.689599609374994],[0.517675781250006,42.686279296875],[0.377246093750017,42.700146484375],[0.312890625000023,42.693261718749994],[0.25546875,42.69291992187496],[0.201367187499983,42.719335937500034],[-0.041162109374994,42.689111328124994],[-0.081494140624983,42.703857421875],[-0.140039062500023,42.74892578125002],[-0.205322265625,42.785302734374966],[-0.256054687499983,42.803955078125],[-0.29931640625,42.825341796874994],[-0.338574218749983,42.82880859375],[-0.3984375,42.80810546875],[-0.481152343749983,42.79931640625],[-0.5498046875,42.802001953125],[-0.58642578125,42.798974609374994],[-0.740185546874983,42.909521484375],[-0.762646484374983,42.939794921875],[-0.839208984374977,42.94819335937501],[-0.933837890625,42.94951171875002],[-1.175439453125023,43.021142578124966],[-1.285449218749989,43.059619140624996],[-1.301562499999989,43.082470703125],[-1.300048828125,43.100976562499966],[-1.31884765625,43.09697265624996],[-1.352734374999983,43.064257812500045],[-1.370507812499994,43.03759765625],[-1.39404296875,43.032617187499994],[-1.428759765624989,43.036767578124994],[-1.460839843749994,43.0517578125],[-1.48046875,43.071142578125],[-1.459423828124983,43.10498046875],[-1.422607421875,43.14912109375],[-1.407324218749977,43.197119140625],[-1.410693359374989,43.240087890625],[-1.471728515624989,43.267675781250006],[-1.561474609374983,43.279199218749994],[-1.627148437499983,43.282470703125],[-1.712841796874983,43.30703125000002],[-1.753271484374977,43.32470703125],[-1.792724609375,43.37255859375],[-1.794042968749977,43.40732421875],[-1.63144531249992,43.43803710937499],[-1.48486328125,43.56376953125002],[-1.345996093749932,44.02021484375001],[-1.245507812499994,44.55986328124999],[-1.170800781249966,44.66181640624998],[-1.076953124999932,44.68984375000002],[-1.152880859374932,44.764013671875034],[-1.200390624999955,44.72646484375002],[-1.2203125,44.68662109374998],[-1.24521484374992,44.66669921875001],[-1.189062499999949,45.161474609375006],[-1.149072265624966,45.342626953125034],[-1.081005859374955,45.53242187499998],[-0.94174804687492,45.45708007812499],[-0.826318359374937,45.38066406249999],[-0.76665039062496,45.314355468749966],[-0.691113281249926,45.09345703124998],[-0.633984374999926,45.04711914062497],[-0.548486328124994,45.000585937500006],[-0.582275390624972,45.051367187500034],[-0.641113281249943,45.090185546875034],[-0.733105468749955,45.38461914062498],[-0.790771484374972,45.468017578125],[-0.880664062499989,45.538183593750006],[-1.16997070312496,45.6859375],[-1.195996093749926,45.714453125000034],[-1.209960937499943,45.770898437499994],[-1.11435546874992,45.76850585937504],[-1.031738281249943,45.741064453125034],[-1.04150390625,45.77265624999998],[-1.06601562499992,45.80566406250006],[-1.104394531250023,45.92534179687502],[-1.136376953124966,46.20483398437503],[-1.132031249999955,46.252685546875],[-1.146289062499932,46.31137695312506],[-1.23881835937496,46.32451171874996],[-1.312792968749932,46.32690429687503],[-1.392480468749994,46.35009765625003],[-1.786523437499994,46.51484375000001],[-1.921435546874932,46.684814453125],[-2.059375,46.810302734375],[-2.092480468749955,46.86503906249996],[-2.090283203124955,46.92050781249998],[-2.018896484374977,47.037646484375045],[-2.081933593749937,47.11162109375002],[-2.143554687499972,47.12631835937498],[-2.19707031249996,47.16293945312498],[-2.148583984374937,47.22392578124999],[-2.108300781249994,47.26293945312503],[-2.027587890624972,47.273583984374966],[-1.921728515625006,47.260644531249994],[-1.821289062499972,47.225341796875],[-1.742529296874977,47.21596679687505],[-1.975390624999989,47.310693359374966],[-2.353027343750028,47.278759765624955],[-2.434423828125006,47.290966796874955],[-2.503125,47.31206054687499],[-2.530029296875028,47.38159179687503],[-2.476318359375,47.412939453125034],[-2.427685546874955,47.47089843750001],[-2.48271484374996,47.511621093749966],[-2.554052734374949,47.52705078125001],[-2.665917968749994,47.52617187499999],[-2.770312499999932,47.51386718749998],[-2.796777343749994,47.53725585937505],[-2.733105468750011,47.60180664062506],[-2.78720703124992,47.62553710937499],[-2.859375,47.614453124999955],[-2.964062499999983,47.60107421874997],[-3.064208984374943,47.62133789062503],[-3.158837890624966,47.694677734375034],[-3.221582031249966,47.69414062500002],[-3.264697265624932,47.68510742187496],[-3.32861328125,47.71333007812504],[-3.395898437499937,47.720410156249955],[-3.443945312499949,47.711035156250006],[-3.5078125,47.753125],[-3.900927734374989,47.83754882812502],[-4.070703125000023,47.84785156249998],[-4.226416015624949,47.80961914062502],[-4.312109374999977,47.822900390624966],[-4.375097656249949,47.87744140624997],[-4.427978515624972,47.968945312499955],[-4.67880859374992,48.039501953124955],[-4.629199218749932,48.08579101562506],[-4.512402343749926,48.09672851562499],[-4.377832031249966,48.12880859375002],[-4.329443359374977,48.16997070312499],[-4.434619140624989,48.21796874999998],[-4.51220703125,48.22973632812497],[-4.544335937499966,48.24697265625002],[-4.577148437499972,48.2900390625],[-4.530664062499937,48.30971679687502],[-4.49790039062492,48.29926757812504],[-4.4033203125,48.293066406250006],[-4.241406249999983,48.30366210937504],[-4.3017578125,48.347070312499994],[-4.364404296874994,48.35673828125002],[-4.393164062499977,48.36762695312501],[-4.524804687499966,48.372314453125],[-4.584716796875028,48.357519531250006],[-4.719384765624994,48.36313476562498],[-4.74853515625,48.410009765625034],[-4.7625,48.45024414062496],[-4.720751953124932,48.539892578125034],[-4.531201171874955,48.619970703125006],[-4.058886718750017,48.70751953124997],[-3.855664062499983,48.69472656250002],[-3.714794921874983,48.71049804687496],[-3.545996093749977,48.76567382812502],[-3.47148437499996,48.812939453124955],[-3.2314453125,48.84082031250006],[-3.00322265624996,48.79067382812505],[-2.792871093750023,48.60107421875006],[-2.692333984374955,48.53681640625001],[-2.446191406249994,48.64829101562498],[-2.079443359374977,48.64501953125003],[-2.003710937499989,48.58208007812499],[-1.97314453125,48.63510742187506],[-1.905712890624926,48.69711914062498],[-1.85195312499999,48.668847656249994],[-1.824707031249943,48.63051757812502],[-1.437646484374966,48.64140625000002],[-1.376464843750028,48.65258789062497],[-1.480468749999972,48.697607421875006],[-1.565478515624989,48.805517578125034],[-1.58310546874992,49.202392578125],[-1.690332031250023,49.31318359375001],[-1.813427734374955,49.490136718749994],[-1.870068359374955,49.595117187499966],[-1.875390624999966,49.63139648437499],[-1.856445312500028,49.68378906250001],[-1.705126953125017,49.68095703124996],[-1.588232421875006,49.66767578125001],[-1.365722656249972,49.707275390625],[-1.258642578125006,49.68017578124997],[-1.26494140624996,49.59824218749998],[-1.232275390624949,49.49487304687497],[-1.194970703124994,49.44482421875],[-1.138525390624949,49.38789062500004],[-0.959130859374994,49.393164062500034],[-0.765527343749994,49.35971679687498],[-0.520898437499966,49.35454101562499],[-0.163476562499994,49.29677734375002],[-0.011181640624955,49.330224609374994],[0.136132812500023,49.401513671874966],[0.416894531250023,49.44838867187502],[0.439257812500045,49.47319335937499],[0.277636718750074,49.46328125000002],[0.12939453125,49.508447265624994],[0.109375,49.55751953125005],[0.126562500000034,49.60156250000003],[0.18671875000004,49.70302734375002],[0.616210937500057,49.862939453124994],[0.924121093750074,49.910205078125045],[1.24550781250008,49.99824218750004],[1.4072265625,50.08852539062505],[1.51406250000008,50.20507812499997],[1.548437499999977,50.23071289062506],[1.592773437500057,50.252197265625],[1.551562499999989,50.29394531249997],[1.579492187499994,50.7392578125],[1.609570312500011,50.81948242187502],[1.67226562500008,50.88500976562503],[1.767675781250063,50.935693359374966],[1.9125,50.990625],[2.44570312500008,51.06650390624998],[2.524902343750057,51.09711914062498],[2.536035156250023,51.04951171874998],[2.574804687500006,50.98857421874999],[2.601464843750023,50.955273437499955],[2.57929687500004,50.911767578124994],[2.596777343750034,50.875927734374955],[2.66914062500004,50.811425781249966],[2.759375,50.75063476562502],[2.83974609375008,50.711767578125006],[2.862402343750063,50.71601562499998],[2.921972656250034,50.72705078125],[3.02285156250008,50.766894531250045],[3.106835937500023,50.77944335937502],[3.154882812500063,50.74892578125002],[3.18203125000008,50.73168945312497],[3.234960937500034,50.662939453125006],[3.249804687500017,50.591162109375034],[3.273339843750023,50.53154296874996],[3.316210937500045,50.50737304687502],[3.476953125000023,50.49946289062501],[3.595410156250011,50.47734375000002],[3.626757812499989,50.457324218750045],[3.667285156249989,50.324804687500034],[3.689355468750051,50.30605468750002],[3.718847656250006,50.32167968750002],[3.748046875000028,50.34350585937503],[3.78857421875,50.34697265625002],[3.858105468750068,50.33857421875001],[3.949707031249972,50.3359375],[4.04414062500004,50.321337890625045],[4.174609375000045,50.246484374999966],[4.169628906250011,50.221777343750006],[4.144140625000063,50.178417968749955],[4.135253906250028,50.14379882812503],[4.15771484375,50.12988281250003],[4.192187499999989,50.09414062500002],[4.183886718750074,50.05283203125006],[4.15029296875008,50.02387695312501],[4.136816406250006,50],[4.137011718750045,49.98447265624998],[4.149316406250051,49.97158203125002],[4.176074218749989,49.96025390625002],[4.36875,49.94497070312502],[4.545019531250034,49.96025390625002],[4.656152343750023,50.00244140625],[4.675097656250045,50.046875],[4.706640625,50.097070312499994],[4.77285156250008,50.13906250000002],[4.818652343750074,50.15317382812498],[4.860546875000011,50.135888671874994],[4.790039062500028,49.95957031250006],[4.84150390625004,49.91450195312501],[4.849121093749972,49.84711914062498],[4.867578125000023,49.788134765625045],[4.930566406250051,49.78925781250001],[5.006933593750063,49.77836914062499],[5.06103515625,49.75654296874998],[5.124121093750063,49.72148437499996],[5.215039062500011,49.68925781249996],[5.278808593750028,49.677929687499955],[5.30195312500004,49.65097656249998],[5.353515624999972,49.61982421875004],[5.434667968749977,49.55449218749996],[5.507324218750057,49.51088867187505],[5.54238281250008,49.51103515624999],[5.610058593750011,49.52822265625002],[5.710449218750028,49.53920898437505],[5.789746093750011,49.53828125],[5.823437500000011,49.505078125],[5.9013671875,49.48974609375],[5.928906250000011,49.4775390625],[5.95947265625,49.454638671874996],[6.011425781250011,49.445458984374994],[6.074121093750023,49.454638671874996],[6.119921875000017,49.485205078125],[6.181054687500023,49.498925781249994],[6.2421875,49.4943359375],[6.277343749999972,49.4775390625],[6.344335937500006,49.452734375],[6.382226562500023,49.45815429687505],[6.458105468750034,49.44287109375003],[6.534277343750006,49.394677734374994],[6.566308593750051,49.34619140624997],[6.57470703125,49.31967773437498],[6.60761718750004,49.29086914062498],[6.735449218750063,49.16059570312501],[6.776269531250023,49.154150390625006],[6.820703125000023,49.17392578125006],[6.849511718750023,49.20195312499999],[6.891210937499977,49.20751953124997],[6.958300781250074,49.19462890625002],[7.001464843749972,49.17988281250001],[7.022167968750011,49.123437499999966],[7.036718750000063,49.11269531250002],[7.065722656250017,49.124853515625006],[7.117382812500068,49.127539062500006],[7.199902343749983,49.113623046875034],[7.313378906250023,49.129541015624966],[7.404199218750051,49.15307617187497],[7.45058593750008,49.15219726562498],[7.525488281250063,49.08637695312498],[7.610937500000063,49.06176757812503],[7.799218750000051,49.041894531249966],[8.001269531250017,49.01093749999998],[8.080664062500006,48.98588867187502],[8.134863281250034,48.97358398437501],[8.140332031250011,48.88642578125001],[8.124023437500057,48.873291015625],[7.92275390625008,48.69853515625002],[7.837988281250063,48.63603515624999],[7.794824218750051,48.54682617187501],[7.765136718750028,48.410009765625034],[7.705664062500006,48.28002929687503],[7.61660156250008,48.15678710937496],[7.58417968750004,48.064306640625034],[7.608496093750006,48.002587890624994],[7.593261718750028,47.90566406250005],[7.538574218749972,47.773632812499955],[7.529394531250063,47.67387695312499],[7.565429687500028,47.606542968750034],[7.615625,47.592724609375],[7.494921875000017,47.54736328125],[7.467382812500006,47.507666015625],[7.420019531249977,47.455175781250006],[7.343164062500023,47.43310546875],[7.265722656250006,47.42578124999997],[7.203125,47.43271484375],[7.16748046875,47.4537109375],[7.169238281250017,47.4732421875],[7.136035156250017,47.48984375],[7.053417968749983,47.48935546875006],[6.968359374999977,47.45322265624998],[6.900390625,47.39423828125004],[6.921484375,47.361230468749994],[6.984082031249983,47.35253906249997],[7.000585937500006,47.339453125],[7.000585937500006,47.322509765625],[6.978515625,47.302050781249996],[6.952050781250023,47.2671875],[6.820703125000023,47.163183593750034],[6.688085937500006,47.058251953124994],[6.666894531250023,47.026513671874994],[6.624804687500017,47.004345703125],[6.45625,46.94833984375],[6.438574218750006,46.92587890625],[6.429003906250017,46.832275390625],[6.41015625,46.755419921874996],[6.28515625,46.683056640625],[6.160742187500006,46.61103515625],[6.129687500000017,46.5669921875],[6.10703125,46.516064453125],[6.06796875,46.458544921874996],[6.060253906250011,46.428173828125],[6.123242187500011,46.37861328125],[6.115917968750011,46.337646484375],[6.095898437500011,46.27939453125],[6.0361328125,46.238085937499996],[5.970019531250017,46.214697265625],[5.971484375000017,46.151220703125],[6.006640625000017,46.142333984375],[6.086621093750011,46.147021484374996],[6.199414062500011,46.19306640625],[6.27294921875,46.252246093749996],[6.229589843750006,46.308447265625],[6.22421875,46.31943359375],[6.234667968750017,46.3326171875],[6.321875,46.393701171874994],[6.428906250000011,46.430517578125],[6.578222656250006,46.437353515625034],[6.758105468750017,46.415771484375],[6.776074218750011,46.40664062499999],[6.767382812500017,46.369189453124996],[6.7841796875,46.31396484375],[6.816796875000023,46.275195312499996],[6.772070312500006,46.16513671875],[6.8056640625,46.130664062499996],[6.858007812500006,46.089404296874996],[6.897265625000017,46.0517578125],[6.953710937500006,46.017138671874996],[7.00390625,45.958837890625],[7.02109375,45.92578125],[6.940820312500051,45.86835937500004],[6.804492187499989,45.814550781250006],[6.789160156250063,45.78007812499999],[6.79091796875008,45.740869140624994],[6.80625,45.71000976562502],[6.881445312500034,45.67036132812501],[6.962402343750028,45.58056640625003],[7.013671874999972,45.50048828125006],[7.126074218750063,45.423681640625034],[7.153417968750034,45.40092773437502],[7.146386718750023,45.38173828125002],[7.116796875000034,45.34902343750002],[7.078320312500011,45.23994140624998],[7.032421875000068,45.22260742187501],[6.98125,45.215576171875],[6.842285156250057,45.135644531249966],[6.780371093750063,45.14531249999999],[6.692285156250051,45.14428710937506],[6.627734375000045,45.11796875000002],[6.634765625000057,45.06816406249999],[6.691406250000057,45.02260742187505],[6.724707031250006,44.97299804687506],[6.73818359375008,44.92138671875003],[6.801074218750017,44.88315429687506],[6.889355468750068,44.86030273437501],[6.939843750000051,44.85874023437506],[6.972851562500011,44.84501953125002],[6.992675781250057,44.82729492187505],[7.03066406250008,44.716699218749966],[7.007910156250063,44.68896484375],[6.960351562500051,44.677148437499994],[6.931933593750017,44.63164062499996],[6.875195312500011,44.56455078124998],[6.842968750000011,44.51069335937501],[6.878613281250011,44.46328125000005],[6.893847656250074,44.42817382812498],[6.874804687500017,44.39204101562501],[6.900195312500045,44.33574218749999],[6.967285156250028,44.280029296875],[7.1494140625,44.20170898437496],[7.318554687500011,44.13798828125002],[7.370898437500017,44.12739257812501],[7.599414062500017,44.16835937499999],[7.63720703125,44.16484374999999],[7.6650390625,44.11601562499999],[7.677148437500051,44.083154296874966],[7.651464843750063,44.03364257812501],[7.589648437500074,43.965429687500034],[7.522656250000011,43.91108398437498],[7.48203125,43.864892578124994],[7.490527343750045,43.82294921874998],[7.493164062500057,43.76713867187496],[7.438671875000011,43.750439453125],[7.436914062500023,43.761474609375],[7.41445312499999,43.77089843750002],[7.39501953125,43.76533203125],[7.380078125000011,43.75322265624999],[7.377734375000017,43.731738281249996],[7.261523437500017,43.69609374999999],[7.181445312500045,43.65913085937498],[6.864746093750028,43.438330078125034],[6.716601562500045,43.37358398437499],[6.687402343750023,43.334570312500034],[6.657226562500028,43.26166992187501],[6.570214843750051,43.19907226562498],[6.49404296875008,43.169287109375034],[6.305371093750011,43.13872070312502],[6.11591796875004,43.072363281250006],[6.030566406250074,43.100976562499966],[5.809472656250051,43.09790039062497],[5.67158203125004,43.177832031250006],[5.406542968750045,43.22851562500003],[5.320214843750023,43.34492187500001],[5.199511718750045,43.352490234374955],[5.120410156250017,43.348974609375034],[5.073144531250051,43.366601562499994],[5.060839843750045,43.40629882812499],[5.059765624999983,43.44453124999998],[4.97597656250008,43.42695312500004],[4.911914062500074,43.42695312500004],[4.873730468750011,43.41162109375003],[4.843554687499989,43.393945312499966],[4.807910156250017,43.405224609374955],[4.787207031250063,43.40141601562499],[4.7890625,43.37890625000003],[4.71210937500004,43.37329101562503],[4.628710937500017,43.38710937499999],[4.409765625,43.44721679687498],[4.376171874999983,43.456396484375006],[4.224218750000034,43.47963867187502],[4.16279296875004,43.50366210937503],[4.113085937500045,43.56303710937496],[4.075097656250023,43.58183593749996],[4.05263671875008,43.593066406250045],[3.91083984375004,43.56308593750006],[3.861621093750074,43.51635742187503],[3.784765625000034,43.46162109374998],[3.258886718750006,43.193212890625034],[3.162890624999989,43.08076171875004],[3.0517578125,42.915136718750034],[3.043066406250006,42.83789062500003],[3.090917968749977,42.59086914062496],[3.197851562500006,42.461181640625],[3.21142578125,42.43115234375],[3.152148437500017,42.431005859375],[3.052636718749994,42.44721679687501],[2.970019531250017,42.467236328125],[2.891406250000017,42.45605468750003],[2.815625,42.429248046874996],[2.749414062500023,42.413037109375],[2.701855468750011,42.408496093749996],[2.670019531250006,42.393017578125],[2.65478515625,42.362109375],[2.651660156250017,42.34047851562502],[2.56796875,42.34580078125],[2.374414062500023,42.39028320312505],[2.200390625000011,42.420947265624996],[2.098339843750011,42.386083984375],[2.03271484375,42.353515625],[1.986523437500011,42.35849609375],[1.951464843750017,42.3927734375],[1.927929687500011,42.426318359374996],[1.859765625000023,42.457080078124996],[1.7060546875,42.503320312499994]]],[[[-1.178320312499977,45.90405273437503],[-1.213574218749955,45.81660156249998],[-1.280273437499972,45.89711914062502],[-1.36870117187496,45.96767578125002],[-1.388867187499983,46.032958984375],[-1.388671875000028,46.050390625],[-1.285058593749966,46.00268554687506],[-1.178320312499977,45.90405273437503]]]]}},{"type":"Feature","properties":{"adm0_a3":"FRA","su_a3":"GLP","name":"Guadeloupe"},"geometry":{"type":"MultiPolygon","coordinates":[[[[-61.23046875,15.889941406250017],[-61.286230468750006,15.886035156250017],[-61.31074218750001,15.894677734374994],[-61.31840820312499,15.954882812499989],[-61.275292968749994,15.996240234374994],[-61.25,16.006298828124983],[-61.212353515624955,15.959912109374955],[-61.20341796874999,15.921240234374977],[-61.23046875,15.889941406250017]]],[[[-61.58955078124998,16.006933593750034],[-61.67045898437493,15.962060546875051],[-61.71025390624996,15.975927734375034],[-61.75942382812494,16.06206054687499],[-61.794091796874994,16.300976562499983],[-61.76713867187499,16.34047851562505],[-61.74804687500003,16.355273437500045],[-61.641503906249994,16.325976562500017],[-61.59702148437498,16.292187499999983],[-61.552343750000034,16.270898437499994],[-61.575048828125034,16.227148437500034],[-61.563867187499966,16.047753906249994],[-61.58955078124998,16.006933593750034]]],[[[-61.32714843749997,16.23041992187501],[-61.44482421874997,16.219287109375045],[-61.52216796875001,16.228027343750057],[-61.53999023437501,16.299609375000074],[-61.50058593749998,16.360205078124977],[-61.52890624999995,16.433789062499955],[-61.510644531249966,16.477685546875023],[-61.47119140625003,16.506640625000045],[-61.40644531249998,16.468310546875074],[-61.396142578124994,16.413427734374977],[-61.35546874999997,16.36318359375005],[-61.17260742187503,16.256103515625],[-61.32714843749997,16.23041992187501]]]]}},{"type":"Feature","properties":{"adm0_a3":"FRA","su_a3":"GUF","name":"French Guiana"},"geometry":{"type":"Polygon","coordinates":[[[-51.65253906249998,4.061279296875],[-51.683447265625006,4.039697265624994],[-51.76708984375003,3.992675781250057],[-51.805273437500006,3.929931640625],[-51.827490234375006,3.869580078124997],[-51.879492187500006,3.828564453124997],[-51.92890624999998,3.77695312499999],[-51.9443359375,3.735107421875],[-51.990625,3.702001953124977],[-51.99951171875,3.646875],[-52.116113281249994,3.452294921875009],[-52.16259765625,3.364697265624997],[-52.229443359375,3.271679687499997],[-52.271240234375,3.237109374999989],[-52.327880859375,3.181738281249991],[-52.356640625,3.117724609374989],[-52.356640625,3.051562499999989],[-52.396386718749994,2.972216796874989],[-52.418408203125,2.903857421874989],[-52.45585937500002,2.864160156249994],[-52.5546875,2.64765625000004],[-52.559472656249994,2.573144531250037],[-52.5830078125,2.52890625],[-52.65317382812499,2.425732421874997],[-52.700634765625,2.36367187499999],[-52.7833984375,2.317187499999989],[-52.87041015625002,2.266650390625045],[-52.903466796874994,2.211523437499991],[-52.96484375,2.183544921874997],[-53.009716796875,2.181738281249991],[-53.082275390625,2.20170898437496],[-53.18007812499999,2.21132812499999],[-53.22978515624999,2.204882812499989],[-53.252197265625,2.232275390624991],[-53.285498046875006,2.295214843750003],[-53.334423828125,2.339746093749994],[-53.36601562499999,2.32421875],[-53.4318359375,2.279443359374994],[-53.508984375,2.253125],[-53.56396484375,2.261914062499969],[-53.68369140624999,2.292919921874997],[-53.73471679687499,2.308544921874997],[-53.750146484374994,2.335009765624989],[-53.7677734375,2.354833984374991],[-53.79423828125002,2.345996093750045],[-53.82954101562501,2.312939453124969],[-53.876611328124994,2.278271484374997],[-53.94643554687502,2.232568359375023],[-54.089746093749994,2.150488281249991],[-54.130078125,2.121044921874997],[-54.167382812499994,2.137060546874991],[-54.22797851562501,2.153320312500043],[-54.293066406250034,2.154248046874969],[-54.43310546875,2.20751953125],[-54.515087890625,2.245458984374991],[-54.55048828125,2.293066406249991],[-54.591943359374994,2.31376953124996],[-54.61625976562499,2.326757812499991],[-54.604736328125,2.335791015624991],[-54.56840820312499,2.342578124999989],[-54.53593749999999,2.343310546874989],[-54.485546875,2.416113281249991],[-54.402001953124994,2.461523437499991],[-54.256738281249994,2.713720703124991],[-54.1955078125,2.81787109375],[-54.18808593749999,2.874853515624991],[-54.17070312499999,2.993603515624997],[-54.203125,3.13818359375],[-54.18803710937499,3.178759765624989],[-54.06318359375,3.353320312499989],[-54.00957031249999,3.448535156249989],[-54.00595703124999,3.530517578125],[-53.990478515625,3.589550781249997],[-54.00590820312499,3.620410156249989],[-54.03422851562499,3.62939453125],[-54.081982421875,3.705957031249994],[-54.11279296875,3.769433593749994],[-54.1974609375,3.834423828124997],[-54.255517578124994,3.901074218749997],[-54.350732421874994,4.054101562499994],[-54.34213867187499,4.140039062499994],[-54.369140625,4.170947265624989],[-54.398388671875,4.202490234374991],[-54.396240234375,4.24140625],[-54.416015625,4.337646484375],[-54.440673828125,4.428027343749989],[-54.44960937499999,4.485009765624994],[-54.42607421874999,4.5830078125],[-54.44023437499999,4.691992187499991],[-54.471142578125,4.749316406249989],[-54.4796875,4.836523437499991],[-54.47333984375,4.914697265624994],[-54.446875,4.958789062499989],[-54.45219726562499,5.013476562499989],[-54.33164062499999,5.187402343749994],[-54.240185546875,5.288232421874994],[-54.15595703125,5.35898437499999],[-54.08530273437499,5.411816406249997],[-53.98959960937499,5.676025390625],[-53.919921875,5.768994140624997],[-53.84716796875,5.7822265625],[-53.45444335937499,5.5634765625],[-53.27036132812499,5.543261718749989],[-52.899316406249994,5.425048828125],[-52.76499023437499,5.273486328124989],[-52.45395507812499,5.021337890624991],[-52.29052734375,4.942187499999989],[-52.28891601562499,4.876123046874994],[-52.32460937499999,4.770898437499994],[-52.219970703125,4.86279296875],[-52.05810546875,4.717382812499991],[-52.01230468749999,4.64599609375],[-51.9619140625,4.514404296875],[-51.979345703125006,4.429882812499997],[-52.001708984375,4.38623046875],[-52.0029296875,4.352294921875],[-51.95478515624998,4.399072265624994],[-51.92768554687498,4.436132812499991],[-51.919580078124994,4.524316406249994],[-51.880273437499994,4.633740234374997],[-51.827539062499994,4.635693359374997],[-51.78564453125,4.570507812499997],[-51.698632812499994,4.286816406249997],[-51.66582031249999,4.228808593749989],[-51.65327148437498,4.138769531249991],[-51.658105468749994,4.098486328124991],[-51.65253906249998,4.061279296875]]]}},{"type":"Feature","properties":{"adm0_a3":"FRA","su_a3":"MTQ","name":"Martinique"},"geometry":{"type":"Polygon","coordinates":[[[-60.82626953124999,14.494482421874991],[-60.83662109375,14.437402343749994],[-60.86210937499999,14.42626953125],[-60.8994140625,14.473779296874994],[-61.063720703125,14.467089843750003],[-61.0888671875,14.509570312500003],[-61.09033203125,14.5296875],[-61.01132812499999,14.601904296874991],[-61.10429687499999,14.621240234374994],[-61.14111328125,14.652392578125003],[-61.2197265625,14.804394531249997],[-61.213330078125,14.848583984374997],[-61.180810546874994,14.871923828124991],[-61.127392578125,14.875292968750003],[-61.027099609375,14.826171875],[-60.952539062499994,14.75625],[-60.927148437499994,14.755175781250003],[-60.91865234375,14.7353515625],[-60.93369140624999,14.686181640624994],[-60.88916015625,14.64453125],[-60.86997070312499,14.613720703124997],[-60.82626953124999,14.494482421874991]]]}},{"type":"Feature","properties":{"adm0_a3":"FRA","su_a3":"MYT","name":"Mayotte"},"geometry":{"type":"Polygon","coordinates":[[[45.180273437500006,-12.976757812500011],[45.11757812500002,-12.984960937500006],[45.08769531250002,-12.95849609375],[45.069433593750006,-12.895605468750006],[45.08828125000002,-12.835058593750006],[45.09355468750002,-12.7861328125],[45.042578125,-12.701269531250006],[45.092382812500006,-12.653027343750011],[45.134765625,-12.709179687500011],[45.158789062500006,-12.712988281250006],[45.22314453125,-12.752148437500011],[45.20429687500001,-12.824316406250006],[45.20859375,-12.847949218750003],[45.17939453125001,-12.920214843750003],[45.180273437500006,-12.976757812500011]]]}},{"type":"Feature","properties":{"adm0_a3":"GBR","su_a3":"NIR","name":"N. Ireland"},"geometry":{"type":"Polygon","coordinates":[[[-6.218017578125,54.088720703125],[-6.303662109375011,54.094873046874994],[-6.36367187499999,54.077099609375],[-6.402587890625,54.06064453125],[-6.440283203124977,54.063623046875],[-6.548144531249989,54.057275390625],[-6.649804687499994,54.05864257812499],[-6.664208984374994,54.08476562499999],[-6.646875,54.163427734375],[-6.669531249999977,54.184716796875],[-6.7666015625,54.195605468749996],[-6.802587890624977,54.21435546875],[-6.858349609374983,54.26865234375],[-6.869238281249977,54.29404296875],[-6.877246093749989,54.3291015625],[-6.936132812499977,54.374316406249996],[-7.007714843749994,54.406689453125],[-7.049707031249994,54.408251953124996],[-7.133496093749983,54.35537109375],[-7.202587890624983,54.301806640624996],[-7.178076171874977,54.27490234375],[-7.155468749999983,54.23950195312497],[-7.193066406249983,54.214111328125],[-7.306738281249977,54.156005859375],[-7.324511718749989,54.133447265625],[-7.355175781249983,54.121240234375],[-7.409423828125,54.1373046875],[-7.54443359375,54.13359374999999],[-7.606542968749977,54.143847656249996],[-7.678759765624989,54.186669921875],[-7.854931640624983,54.215283203125],[-7.884472656250011,54.283789062500034],[-7.91845703125,54.29658203125],[-8.118261718749977,54.4142578125],[-8.144824218749989,54.453515625],[-8.118945312499989,54.476953125],[-8.044335937499994,54.512451171875],[-7.793798828124977,54.571240234375],[-7.75439453125,54.594921875],[-7.746289062499983,54.6158203125],[-7.81982421875,54.639697265624996],[-7.886132812499994,54.666064453124996],[-7.908740234374989,54.683349609375],[-7.910595703124983,54.698339843750034],[-7.872949218749994,54.71787109375],[-7.79726562499999,54.71928710937502],[-7.7375,54.71044921875],[-7.689990234374989,54.72802734375],[-7.6064453125,54.745703125],[-7.550390624999977,54.76796875],[-7.502197265625028,54.82543945312497],[-7.451269531249977,54.877099609375],[-7.445996093749983,54.905126953125],[-7.401416015624989,55.0033203125],[-7.376904296874983,55.027685546875],[-7.218652343749994,55.09199218750001],[-7.178613281249994,55.056884765625],[-7.100634765624989,55.048291015625],[-7.03076171875,55.080615234374996],[-6.947167968749994,55.18251953125],[-6.888964843749989,55.188916015625],[-6.824853515624994,55.1806640625],[-6.698828124999977,55.19345703125],[-6.475048828124983,55.241015625],[-6.375292968749989,55.241796875],[-6.234228515624977,55.216845703124996],[-6.129150390625,55.2173828125],[-6.035791015624994,55.14453125],[-5.985742187499994,55.0296875],[-5.869189453124989,54.9162109375],[-5.716845703124989,54.81748046875],[-5.710742187499989,54.757080078125],[-5.765185546874989,54.724658203124996],[-5.879101562499983,54.684375],[-5.878613281249983,54.64130859375],[-5.803466796875,54.663037109375],[-5.738623046874977,54.673046875],[-5.58251953125,54.663427734375],[-5.527929687499977,54.61962890625],[-5.490185546874983,54.554052734375],[-5.470410156249983,54.5001953125],[-5.48388671875,54.441650390625],[-5.52587890625,54.460205078125],[-5.568554687499983,54.51259765625],[-5.615966796875,54.53671875],[-5.671093749999983,54.549755859375],[-5.646093749999977,54.477880859375],[-5.655957031249983,54.38173828125],[-5.631884765624989,54.37265625],[-5.557812499999983,54.37099609375],[-5.606787109374977,54.27255859375],[-5.708056640624989,54.245849609375],[-5.826171875,54.23583984375],[-5.854638671874994,54.200976562499996],[-5.876074218749977,54.156054687499996],[-5.937744140625,54.0890625],[-6.01904296875,54.05126953125],[-6.11953125,54.058886718749996],[-6.218017578125,54.088720703125]]]}},{"type":"Feature","properties":{"adm0_a3":"FRA","su_a3":"REU","name":"Reunion"},"geometry":{"type":"Polygon","coordinates":[[[55.79736328125,-21.33935546875],[55.65615234375002,-21.36904296875001],[55.5576171875,-21.35830078125001],[55.36269531250002,-21.27363281250001],[55.31035156250002,-21.217382812500006],[55.23281250000002,-21.058398437500003],[55.25,-21.00244140625],[55.31132812500002,-20.904101562500003],[55.45048828125002,-20.86513671875001],[55.59648437500002,-20.87958984375001],[55.66191406250002,-20.90625],[55.73916015625002,-21.021484375],[55.83906250000001,-21.13857421875001],[55.82246093750001,-21.27783203125],[55.79736328125,-21.33935546875]]]}},{"type":"Feature","properties":{"adm0_a3":"GBR","su_a3":"SCT","name":"Scotland"},"geometry":{"type":"MultiPolygon","coordinates":[[[[-2.016845703125,55.807958984375034],[-2.048242187500023,55.80004882812503],[-2.197314453125017,55.69077148437506],[-2.274121093749926,55.648388671874955],[-2.313427734374955,55.639257812500034],[-2.32114257812492,55.627685546875],[-2.244042968749937,55.537207031250034],[-2.193603515624972,55.46386718750003],[-2.202783203124966,55.445654296875034],[-2.347314453125023,55.37836914062501],[-2.410546875000023,55.36166992187498],[-2.479443359374926,55.350830078125],[-2.543798828124977,55.31679687499999],[-2.676806640624989,55.198632812499994],[-2.84873046874992,55.11284179687502],[-2.939160156249983,55.056738281250034],[-2.989941406249926,55.045751953125006],[-3.039453124999966,55.01508789062498],[-3.0810546875,54.96196289062499],[-3.43408203125,54.96376953125002],[-3.550439453124994,54.947412109374966],[-3.65830078124992,54.892871093750045],[-3.71923828125,54.876123046874994],[-3.783251953124989,54.86992187499999],[-3.84160156249996,54.84277343750006],[-3.898583984374937,54.80507812500002],[-3.957910156249937,54.78095703124998],[-4.075781249999977,54.787207031250006],[-4.132958984374994,54.77924804687498],[-4.174023437499926,54.80107421874999],[-4.208398437499994,54.83715820312497],[-4.253417968749943,54.84677734374998],[-4.303662109374955,54.83569335937503],[-4.409912109375028,54.78706054687498],[-4.517480468749994,54.75834960937499],[-4.647558593749949,54.78901367187501],[-4.818066406249955,54.84614257812504],[-4.851708984374966,54.825292968750034],[-4.889501953124949,54.77226562499999],[-4.91123046874992,54.689453125],[-5.032324218749977,54.761376953124994],[-5.135498046874972,54.857519531250034],[-5.170117187499983,54.91791992187498],[-5.172705078124977,54.98588867187499],[-5.116699218749943,55.01225585937502],[-5.055859374999983,54.988134765625006],[-4.965185546874977,55.14946289062502],[-4.784814453125023,55.35942382812496],[-4.721142578124926,55.42099609374998],[-4.676757812499943,55.501318359375006],[-4.684375,55.55390624999998],[-4.724169921875017,55.59829101562505],[-4.891845703124972,55.699121093749994],[-4.889648437499972,55.78120117187501],[-4.871679687499949,55.873925781249994],[-4.826074218749994,55.929541015625034],[-4.806835937499983,55.94013671874998],[-4.584082031249977,55.93867187500004],[-4.670947265624989,55.967382812500006],[-4.84409179687492,56.05117187500002],[-4.841015624999926,56.080859375000045],[-4.800292968749972,56.15834960937502],[-4.819140624999989,56.150488281250006],[-4.85625,56.11469726562501],[-4.927099609374949,56.02807617187503],[-4.970361328124966,56.00786132812499],[-5.09282226562496,55.9873046875],[-5.114990234374943,55.94462890624999],[-5.134667968749966,55.93349609375005],[-5.195849609374989,55.92866210937504],[-5.214599609375,55.88886718750001],[-5.228222656249926,55.886328125000034],[-5.24560546875,55.92924804687496],[-5.247314453125,56.00039062499999],[-5.222949218749932,56.065820312499994],[-5.176416015624937,56.11699218750002],[-4.996972656249994,56.23334960937501],[-5.08432617187492,56.19746093749998],[-5.282324218749949,56.089941406250034],[-5.383447265624937,56.01923828125001],[-5.410449218749932,55.99536132812503],[-5.418896484374955,55.97524414062502],[-5.41831054687492,55.952050781249994],[-5.37290039062492,55.82768554687499],[-5.385839843749977,55.77011718750006],[-5.556445312500017,55.38959960937498],[-5.588769531249937,55.351416015625034],[-5.618457031249932,55.33144531250005],[-5.646533203124989,55.32685546874998],[-5.730664062499983,55.334130859374966],[-5.768212890624994,55.362646484375006],[-5.767871093750017,55.39497070312501],[-5.752099609374994,55.443457031250034],[-5.681347656249955,55.623974609374955],[-5.650634765625,55.674121093750045],[-5.60502929687496,55.720751953125045],[-5.504492187500006,55.802392578124966],[-5.506933593749949,55.807714843750006],[-5.573876953124994,55.79169921875001],[-5.602392578124949,55.796972656250034],[-5.62285156249996,55.81313476562502],[-5.609570312499983,56.05527343749998],[-5.555273437499949,56.134960937499955],[-5.534960937499989,56.250830078125034],[-5.487890624999977,56.35004882812498],[-5.433398437499989,56.42231445312498],[-5.391943359374977,56.514794921874994],[-5.329443359374949,56.555908203125],[-5.312695312500011,56.61879882812502],[-5.242578125000023,56.686865234375034],[-5.188378906249994,56.75805664062497],[-5.217578124999989,56.75102539062496],[-5.564208984375,56.56572265624996],[-5.652441406249949,56.53198242187503],[-5.772802734374949,56.541015625],[-5.864843749999949,56.56186523437498],[-5.936767578124943,56.60571289062503],[-5.968896484375023,56.68989257812504],[-6.057714843749977,56.69213867187506],[-6.133691406250023,56.706689453124994],[-6.132763671875011,56.718017578125],[-6.034716796874932,56.76391601562503],[-5.877636718749983,56.779638671875034],[-5.730615234374966,56.85307617187499],[-5.861425781249977,56.902685546875034],[-5.850390624999932,56.918408203124955],[-5.736279296874955,56.960644531249955],[-5.59130859375,57.102343750000045],[-5.561914062499966,57.23271484374996],[-5.63125,57.2939453125],[-5.65634765624992,57.334082031250006],[-5.794921875,57.378808593749966],[-5.818066406249926,57.43608398437499],[-5.801953124999926,57.46801757812503],[-5.756738281249966,57.49921874999998],[-5.688623046874937,57.52353515625006],[-5.581787109375028,57.546777343749994],[-5.67875976562496,57.571679687499994],[-5.714941406249977,57.60107421875003],[-5.742382812499955,57.643652343750006],[-5.74492187499996,57.66831054687506],[-5.694726562499937,57.778222656249994],[-5.665478515624926,57.82353515624999],[-5.608349609374926,57.88134765625003],[-5.349023437499937,57.878076171874994],[-5.319189453124977,57.903613281250045],[-5.289794921874943,57.90458984374996],[-5.157226562499943,57.88134765625003],[-5.176904296874966,57.906396484374994],[-5.39375,58.04360351562505],[-5.413183593749949,58.06972656250005],[-5.35136718749996,58.14370117187502],[-5.346875,58.176660156249966],[-5.355957031250028,58.21191406250006],[-5.338281249999966,58.23872070312501],[-5.26953125,58.25141601562501],[-5.059960937499937,58.25014648437502],[-5.008300781249972,58.26264648437498],[-5.031835937499977,58.29829101562498],[-5.08061523437496,58.34516601562501],[-5.09013671874996,58.38452148437506],[-5.078710937499949,58.419287109375034],[-5.07602539062492,58.48925781249997],[-5.066503906249949,58.52021484374998],[-5.016748046875023,58.566552734374994],[-4.975634765624989,58.58032226562506],[-4.924658203125006,58.58837890625],[-4.809619140625017,58.572900390624966],[-4.765771484374966,58.55419921874997],[-4.71542968749992,58.51000976562503],[-4.678222656249972,58.51357421875005],[-4.534960937500017,58.561572265625045],[-4.491894531249926,58.568457031250034],[-4.433251953124966,58.512841796874994],[-4.188623046874966,58.55722656250006],[-3.859521484374966,58.57709960937501],[-3.661816406249926,58.606298828125006],[-3.453564453124955,58.616894531249955],[-3.259130859374977,58.65],[-3.053076171875006,58.634814453125045],[-3.046191406249932,58.615527343750045],[-3.056982421875006,58.588769531249994],[-3.109667968749989,58.51547851562498],[-3.101123046874932,58.433691406250034],[-3.11289062499992,58.40888671875004],[-3.136767578124989,58.37832031250002],[-3.212353515624926,58.32124023437504],[-3.410986328125006,58.23964843750002],[-3.775,58.052099609375006],[-3.990039062499932,57.95903320312496],[-4.01962890624992,57.91425781249998],[-4.035595703124955,57.85200195312501],[-3.906835937499949,57.83964843749996],[-3.857128906249926,57.81855468750004],[-3.887939453125,57.78691406249999],[-4.078417968749989,57.67705078124999],[-4.134521484374972,57.577734375],[-3.988476562499955,57.58125],[-3.868164062499972,57.60034179687497],[-3.628222656249932,57.662255859374994],[-3.402783203124926,57.70825195312503],[-3.294531249999977,57.71015624999998],[-3.083935546874983,57.67348632812505],[-3.036035156249994,57.67231445312498],[-2.946679687499994,57.68925781249999],[-2.856298828124977,57.692285156249966],[-2.244140624999943,57.680859374999955],[-2.074072265624949,57.702392578125],[-1.96152343749992,57.676660156249994],[-1.867382812499926,57.61235351562502],[-1.77792968749992,57.49375],[-1.780664062499937,57.474023437499994],[-1.834716796874943,57.41997070312502],[-1.934472656250023,57.352197265624966],[-2.020312500000017,57.25888671875006],[-2.045507812499977,57.20854492187502],[-2.062353515624949,57.153466796874966],[-2.089550781249983,57.1025390625],[-2.260253906249943,56.86333007812502],[-2.426660156250023,56.730712890625],[-2.500976562499972,56.636572265625006],[-2.592675781249994,56.56157226562502],[-2.68095703124996,56.514404296875],[-2.77519531249996,56.48295898437499],[-3.047412109374989,56.449365234374966],[-3.12358398437496,56.42529296875006],[-3.21445312499992,56.383935546874966],[-3.309960937499937,56.36347656249998],[-3.197998046874943,56.36606445312506],[-3.087011718749977,56.38906250000002],[-2.88515625,56.39750976562499],[-2.652734374999966,56.318261718749994],[-2.674267578124926,56.25341796875003],[-2.767578125,56.20214843749997],[-2.979785156249989,56.19409179687503],[-3.17822265625,56.08012695312499],[-3.267773437499955,56.04506835937502],[-3.362255859374926,56.027636718750045],[-3.480419921874926,56.032812500000034],[-3.69511718749996,56.063330078125034],[-3.7890625,56.09521484375003],[-3.704150390624932,56.04316406250001],[-3.607812499999937,56.016015624999966],[-3.048730468749994,55.95195312499999],[-3.015087890624983,55.95859375],[-2.836865234375011,56.02626953125002],[-2.599316406249926,56.027294921874955],[-2.147070312499977,55.90297851562505],[-2.016845703125,55.807958984375034]]],[[[-5.105419921874955,55.44882812499998],[-5.231494140624989,55.448095703125006],[-5.277050781249926,55.45673828124998],[-5.331494140624926,55.48105468750006],[-5.392675781249949,55.618359374999955],[-5.370800781249926,55.66694335937501],[-5.345703124999972,55.69072265624996],[-5.318115234374943,55.70917968749998],[-5.251611328124994,55.716943359374966],[-5.185449218750023,55.69096679687502],[-5.160400390624972,55.66679687499996],[-5.104980468749972,55.57397460937497],[-5.0947265625,55.49433593750001],[-5.105419921874955,55.44882812499998]]],[[[-6.128906250000028,55.930566406249966],[-6.09282226562496,55.80214843750002],[-6.057617187499972,55.722509765625034],[-6.055322265624937,55.6953125],[-6.088378906250028,55.657519531250045],[-6.253173828125028,55.60722656250002],[-6.305078124999937,55.60693359375003],[-6.30722656249992,55.61914062500003],[-6.27001953125,55.670312499999966],[-6.302050781249932,55.728369140625006],[-6.28642578124996,55.77250976562502],[-6.301757812499972,55.78061523437498],[-6.333886718749937,55.77436523437504],[-6.451953124999932,55.704248046874966],[-6.491357421874966,55.69731445312496],[-6.49565429687496,55.71157226562502],[-6.466455078124937,55.76899414062501],[-6.462841796874926,55.80825195312502],[-6.445263671874983,55.832373046875034],[-6.41318359374992,55.85463867187505],[-6.374951171874955,55.871337890625],[-6.34414062499999,55.87373046875004],[-6.311279296874943,55.85649414062499],[-6.21567382812492,55.90458984375002],[-6.128906250000028,55.930566406249966]]],[[[-5.970068359374977,55.81455078125006],[-5.990917968749983,55.803808593750006],[-6.041552734374989,55.806787109374994],[-6.060351562499989,55.822900390624966],[-6.070703124999966,55.84765625000006],[-6.071972656249955,55.89311523437499],[-6.041308593749932,55.925634765625034],[-5.911767578125023,55.974755859374994],[-5.970312499999949,55.9921875],[-5.972656249999972,56.00444335937502],[-5.939062499999977,56.04526367187498],[-5.799609374999989,56.10878906250005],[-5.762255859374932,56.12031249999998],[-5.725146484375017,56.118554687499994],[-5.797216796874949,56.005615234375],[-5.970068359374977,55.81455078125006]]],[[[-5.777880859374989,56.34433593749998],[-6.176171874999966,56.28872070312502],[-6.313427734374955,56.293652343749955],[-6.325830078124994,56.32094726562502],[-6.298486328125023,56.33916015624999],[-6.18486328124996,56.356884765624955],[-6.138867187500011,56.490625],[-6.31064453124992,56.55214843750005],[-6.319677734374977,56.569433593750006],[-6.30625,56.59877929687505],[-6.286328124999926,56.611865234375045],[-6.182080078124926,56.64296875],[-6.138281249999977,56.649853515624955],[-6.102734374999926,56.645654296874994],[-6.029589843749932,56.60981445312498],[-5.946679687499937,56.534521484375006],[-5.836035156249949,56.52255859375006],[-5.760839843750006,56.490673828124955],[-5.777880859374989,56.34433593749998]]],[[[-6.607617187499926,56.58500976562499],[-6.664453124999966,56.579443359375006],[-6.66855468749992,56.59360351562506],[-6.569921874999977,56.66123046875006],[-6.506054687499926,56.67236328125003],[-6.483691406249989,56.665771484375],[-6.530078124999932,56.62661132812502],[-6.607617187499926,56.58500976562499]]],[[[-7.416894531249966,56.965429687500034],[-7.504785156250023,56.95166015625],[-7.537402343749989,56.95971679687503],[-7.542968749999972,56.97236328125004],[-7.522949218749972,57.00678710937504],[-7.45546875,57.01894531250002],[-7.406689453124926,57.000292968750045],[-7.398925781249943,56.983349609374955],[-7.416894531249966,56.965429687500034]]],[[[-6.279052734374972,56.96469726562498],[-6.308740234374966,56.95180664062502],[-6.34624023437496,56.95429687499998],[-6.383398437500006,56.97089843750001],[-6.432617187499972,57.01791992187498],[-6.322363281250006,57.05053710937497],[-6.278222656249966,57.031396484374966],[-6.261279296874989,57.00952148437506],[-6.260546874999932,56.985253906249994],[-6.279052734374972,56.96469726562498]]],[[[-7.249853515624949,57.115332031250034],[-7.292041015624932,57.10976562500005],[-7.347412109375,57.115136718749994],[-7.381494140624937,57.130664062500045],[-7.415917968749937,57.19213867187503],[-7.42236328125,57.22934570312498],[-7.407031249999989,57.29848632812502],[-7.41054687499999,57.381103515625],[-7.29638671875,57.383691406249994],[-7.267138671874989,57.371777343749955],[-7.24755859375,57.126367187499966],[-7.249853515624949,57.115332031250034]]],[[[-6.144726562499955,57.504980468750006],[-6.146142578124966,57.46079101562506],[-6.163769531249926,57.40883789062505],[-6.140820312499955,57.353662109374994],[-6.13554687499996,57.31425781249996],[-6.093408203124966,57.30170898437498],[-6.067626953124972,57.283544921875006],[-5.880273437499994,57.26323242187496],[-5.706005859374926,57.268945312499966],[-5.67246093749992,57.25268554687503],[-5.668652343749955,57.226904296875006],[-5.696191406249966,57.19843749999998],[-5.795410156250028,57.14653320312499],[-5.913769531249983,57.06264648437505],[-5.949072265624977,57.04516601562503],[-5.987304687499943,57.04443359374997],[-6.014746093749949,57.05195312499998],[-6.034375,57.20122070312502],[-6.162744140624994,57.18212890625006],[-6.26611328125,57.18432617187506],[-6.322705078124983,57.202490234375006],[-6.362402343749977,57.2375],[-6.442431640624932,57.327490234375006],[-6.675439453124994,57.362890625],[-6.741308593749977,57.41245117187498],[-6.761132812499937,57.44238281250003],[-6.752734375000017,57.45893554687504],[-6.704199218749977,57.495751953124994],[-6.643457031249937,57.48261718749998],[-6.605859374999937,57.49067382812501],[-6.583007812499972,57.50712890624999],[-6.58349609375,57.520654296874994],[-6.615283203124989,57.55273437500006],[-6.616796874999949,57.56269531250004],[-6.378515624999977,57.60332031249996],[-6.357666015625,57.66679687500002],[-6.305957031249932,57.671972656250006],[-6.246923828124977,57.651220703125034],[-6.16606445312496,57.585302734375034],[-6.144726562499955,57.504980468750006]]],[[[-7.205566406249972,57.682958984375034],[-7.0927734375,57.62666015625001],[-7.1826171875,57.533300781250006],[-7.320556640624972,57.53374023437499],[-7.514746093750006,57.60195312500005],[-7.515625,57.61586914062502],[-7.499414062499994,57.636328125000034],[-7.4703125,57.652539062499955],[-7.440039062499977,57.65639648437502],[-7.391894531249932,57.64521484374998],[-7.324853515624937,57.66313476562499],[-7.271191406249926,57.65747070312497],[-7.205566406249972,57.682958984375034]]],[[[-6.198681640624926,58.36328124999997],[-6.325830078124994,58.188867187499966],[-6.37558593749992,58.1845703125],[-6.41928710937492,58.14096679687498],[-6.554589843749966,58.092871093750034],[-6.436523437499972,58.091894531250034],[-6.403369140624989,58.075878906249955],[-6.402441406249977,58.041357421875034],[-6.425195312499994,58.02128906250002],[-6.578125,57.94135742187501],[-6.683300781249983,57.91103515625005],[-6.796582031249983,57.827539062499994],[-6.853759765624972,57.82651367187506],[-6.910351562499955,57.77338867187498],[-6.956933593749966,57.75004882812502],[-6.983105468749955,57.75],[-7.013183593749943,57.76176757812502],[-7.083447265624983,57.81376953125002],[-6.955957031249937,57.864892578124966],[-6.944140624999932,57.89365234375006],[-6.856835937499994,57.92353515625001],[-6.864160156249966,57.93286132812506],[-7.00253906249992,57.97490234374999],[-7.057080078124926,58.00317382812497],[-7.051904296874937,58.017968749999966],[-6.985302734374955,58.05048828125004],[-7.016894531249989,58.054785156250006],[-7.038232421874994,58.072314453125045],[-7.076904296874972,58.079003906249966],[-7.08847656249992,58.09536132812502],[-7.095605468749966,58.13828125000006],[-7.085253906249989,58.182177734375045],[-7.044921874999943,58.2015625],[-7.028417968749949,58.22231445312505],[-7.012060546875006,58.22871093750001],[-6.949560546874949,58.217675781249994],[-6.886230468749943,58.18256835937501],[-6.812304687499989,58.19609375000002],[-6.726464843749994,58.18940429687498],[-6.724707031249977,58.197558593750045],[-6.787744140624937,58.28388671874998],[-6.776464843749949,58.301513671875],[-6.74228515624992,58.321630859375034],[-6.544189453124972,58.383154296875034],[-6.297167968749932,58.486621093750074],[-6.237451171875023,58.502832031249994],[-6.219433593749983,58.488720703124955],[-6.194238281249994,58.435107421875045],[-6.198681640624926,58.36328124999997]]],[[[-2.929394531249926,58.74160156250005],[-2.938964843750028,58.73862304687498],[-2.975390624999989,58.75693359374998],[-3.03544921874996,58.82265625000005],[-2.941210937499932,58.83569335937503],[-2.896435546874983,58.82758789062498],[-2.9130859375,58.799609375000045],[-2.929394531249926,58.74160156250005]]],[[[-3.164941406249966,58.79418945312503],[-3.222119140624983,58.78095703124998],[-3.278808593749972,58.78193359375001],[-3.367187499999943,58.839746093749966],[-3.400830078124955,58.88178710937501],[-3.394726562499955,58.90961914062498],[-3.357421875,58.918994140625045],[-3.271923828124983,58.9052734375],[-3.227636718749949,58.85717773437497],[-3.222119140624983,58.82587890624998],[-3.211621093749955,58.81357421875006],[-3.158544921874977,58.80122070312504],[-3.164941406249966,58.79418945312503]]],[[[-3.057421874999989,59.029638671875034],[-3.070703124999937,59.00498046875006],[-2.994677734374989,59.00556640625001],[-2.88457031249996,58.984521484374966],[-2.81791992187496,58.98188476562498],[-2.762451171874943,58.955810546875],[-2.79301757812496,58.90693359374998],[-2.82622070312496,58.89326171875004],[-2.863769531249972,58.89052734375002],[-2.994824218749955,58.93935546875002],[-3.166601562499949,58.919091796874966],[-3.200781249999977,58.92529296875],[-3.223339843749955,58.938769531250074],[-3.232617187499983,58.95551757812501],[-3.232812499999937,58.98964843750005],[-3.242138671874955,58.999707031249955],[-3.304345703124937,58.96743164062505],[-3.331640625,58.97124023437502],[-3.347070312499937,58.98671875],[-3.353710937499955,59.01875],[-3.346826171874966,59.06499023437502],[-3.310351562500017,59.13081054687504],[-3.24858398437496,59.14394531250005],[-3.156494140625028,59.136328125],[-3.051123046874949,59.09902343750002],[-3.019238281249955,59.07602539062506],[-3.02001953125,59.057666015625045],[-3.057421874999989,59.029638671875034]]],[[[-2.54887695312496,59.231347656249994],[-2.662060546874926,59.23017578125001],[-2.60361328124992,59.289306640625],[-2.53564453125,59.30415039062498],[-2.406982421875,59.29755859374998],[-2.429833984374937,59.27104492187499],[-2.54887695312496,59.231347656249994]]],[[[-2.729394531249966,59.18676757812497],[-2.81523437499996,59.161914062500045],[-2.85185546874996,59.18247070312498],[-2.861425781249949,59.24682617187503],[-2.963769531250023,59.274365234374955],[-3.013476562499932,59.29145507812498],[-3.05205078124996,59.32387695312502],[-3.042236328125,59.333837890625006],[-2.975537109374926,59.347119140624955],[-2.861621093749989,59.28833007812506],[-2.815039062500006,59.24082031250006],[-2.730664062499955,59.22675781250004],[-2.719921874999983,59.21948242187497],[-2.729394531249966,59.18676757812497]]],[[[-1.308105468749943,60.5375],[-1.287402343749989,60.46704101562503],[-1.235742187499937,60.48530273437501],[-1.15776367187496,60.41772460937503],[-1.117968749999932,60.417626953124994],[-1.052441406250011,60.44448242187505],[-1.065673828124943,60.38159179687503],[-1.133691406249937,60.20698242187498],[-1.152783203124926,60.17734374999998],[-1.165722656249983,60.124267578125],[-1.179248046874989,60.11391601562502],[-1.199316406249977,60.006591796875],[-1.245312499999955,59.97124023437502],[-1.283789062499977,59.886914062499955],[-1.299462890624966,59.87866210937497],[-1.35585937499999,59.91113281250003],[-1.299511718749983,60.039843750000045],[-1.276171874999932,60.114648437499994],[-1.290917968749994,60.153466796874994],[-1.322802734374932,60.18837890625002],[-1.409033203125006,60.189501953125074],[-1.481494140624932,60.173388671875074],[-1.496875,60.193994140624994],[-1.499121093749949,60.22177734374998],[-1.516601562499972,60.23100585937499],[-1.613037109375,60.229101562500034],[-1.641357421874972,60.23676757812501],[-1.660058593749966,60.262255859375045],[-1.663769531249926,60.28251953125002],[-1.576660156249943,60.298388671875045],[-1.494433593749989,60.29248046875],[-1.374609375,60.332910156249966],[-1.449560546874977,60.468554687500074],[-1.548828124999972,60.481298828125006],[-1.571777343750028,60.49443359375002],[-1.552636718749937,60.51743164062498],[-1.498144531249949,60.52983398437502],[-1.414208984374994,60.598730468750034],[-1.363964843749955,60.60957031250001],[-1.301708984374983,60.607666015625],[-1.308105468749943,60.5375]]],[[[-1.042529296874932,60.51386718749998],[-1.067871093749943,60.502294921875006],[-1.165527343749943,60.60390625000002],[-1.093310546874989,60.72021484375],[-1.005615234374972,60.716503906249955],[-0.991650390624955,60.68603515625006],[-1.000341796874949,60.65800781250002],[-1.045019531250006,60.65551757812506],[-1.049023437499926,60.64692382812498],[-1.035107421874926,60.592919921874994],[-1.034228515624932,60.53017578125002],[-1.042529296874932,60.51386718749998]]],[[[-0.774267578125006,60.811962890624955],[-0.774316406249994,60.80048828125001],[-0.826171875,60.71616210937498],[-0.82548828124996,60.68393554687498],[-0.909130859374926,60.68701171875],[-0.922265624999937,60.69726562500003],[-0.938085937499977,60.745654296875045],[-0.92753906249996,60.797167968750045],[-0.91582031249996,60.810449218749994],[-0.89140625,60.81591796875006],[-0.864941406249983,60.80581054687502],[-0.823437499999983,60.831884765625006],[-0.801806640625017,60.83125],[-0.774267578125006,60.811962890624955]]]]}},{"type":"Feature","properties":{"adm0_a3":"GBR","su_a3":"WLS","name":"Wales"},"geometry":{"type":"MultiPolygon","coordinates":[[[[-3.097558593749994,53.26030273437499],[-3.055175781249972,53.25366210937506],[-2.976171874999949,53.221875],[-2.924218749999937,53.186279296875],[-2.935742187499983,53.16220703124998],[-2.941601562499926,53.145751953125],[-2.927539062499989,53.12397460937501],[-2.830371093749932,53.00239257812501],[-2.772753906249989,52.97758789062502],[-2.725439453124949,52.950634765624955],[-2.720605468749937,52.92802734374996],[-2.754248046874949,52.91225585937505],[-2.82011718749996,52.920947265625045],[-2.981152343750011,52.95185546875001],[-3.040087890624932,52.93159179687498],[-3.11508789062492,52.87143554687498],[-3.150146484374972,52.82475585937499],[-3.14360351562496,52.80561523437498],[-2.986572265624943,52.743945312500045],[-2.988720703124955,52.714697265625034],[-3.027001953125023,52.67612304687498],[-3.114648437499937,52.57426757812502],[-3.101171874999949,52.55683593750001],[-2.997314453125,52.55966796875006],[-2.984960937499977,52.54272460937497],[-3.00693359374992,52.51645507812506],[-3.071191406249966,52.495947265625034],[-3.1539062499999,52.48051757812502],[-3.203125,52.458642578124994],[-3.21132812499999,52.44008789062502],[-3.203564453124926,52.422216796875034],[-3.135937500000011,52.38125],[-3.016503906249994,52.342675781249994],[-2.975537109374926,52.316064453124994],[-2.971679687499943,52.29155273437496],[-2.974804687499955,52.272265625000045],[-2.991992187499989,52.25727539062501],[-3.054687499999972,52.22016601562498],[-3.094042968749989,52.18398437499999],[-3.096093749999966,52.15961914062501],[-3.11279296875,52.11953125000002],[-3.114208984374926,52.09404296874996],[-3.106689453125,52.064746093750045],[-3.064941406250028,52.00034179687498],[-3.012646484374926,51.9515625],[-2.953515624999966,51.91450195312498],[-2.90727539062496,51.920263671875006],[-2.834863281249937,51.90571289062498],[-2.762646484374983,51.86235351562502],[-2.69316406249996,51.83095703125002],[-2.662304687499955,51.80224609375003],[-2.677636718749994,51.75903320312503],[-2.673730468749994,51.63847656249996],[-2.667675781249983,51.62299804687501],[-2.742138671874983,51.58110351562502],[-2.978515625,51.53886718750002],[-3.08037109374996,51.49580078125004],[-3.258789062499972,51.39848632812502],[-3.293115234374966,51.39042968749999],[-3.56235351562492,51.41381835937503],[-3.762695312499972,51.539941406249966],[-3.890771484374937,51.591650390625034],[-3.943652343749989,51.59750976562498],[-3.998339843749932,51.582128906250034],[-4.11528320312496,51.56640625000003],[-4.234570312500011,51.56909179687506],[-4.173681640624949,51.62734375000002],[-4.091015624999983,51.659912109375],[-4.27617187499996,51.682519531249966],[-4.327636718749943,51.700244140625045],[-4.386279296874989,51.741064453125006],[-4.531494140625,51.748046875],[-4.600781250000011,51.737646484375006],[-4.71762695312492,51.683691406250034],[-4.902294921874955,51.62626953124996],[-5.124755859375,51.70585937500002],[-5.16835937499999,51.74072265625003],[-5.167236328124943,51.80805664062498],[-5.200585937499994,51.86137695312499],[-5.262304687499949,51.88017578125002],[-5.183349609374943,51.949658203124955],[-5.088085937499983,51.99589843749996],[-4.87851562499992,52.041845703125006],[-4.56113281249992,52.15087890625],[-4.383154296874977,52.19731445312496],[-4.217724609374955,52.277441406250034],[-4.149365234374955,52.326269531250034],[-4.099755859374994,52.39311523437496],[-4.050537109375,52.47514648437499],[-3.980322265624977,52.54174804687506],[-4.0484375,52.5576171875],[-4.078906249999989,52.60786132812501],[-4.070703125000023,52.65883789062502],[-4.039257812500011,52.70405273437498],[-4.06743164062496,52.7607421875],[-4.117529296874949,52.82001953124998],[-4.114746093750028,52.86616210937498],[-4.101464843749966,52.91547851562498],[-4.229150390624966,52.91284179687497],[-4.356445312499972,52.89741210937504],[-4.471826171874937,52.86245117187502],[-4.583691406249983,52.81494140625003],[-4.683056640624983,52.80615234375],[-4.681445312500017,52.84414062500002],[-4.638330078125023,52.89111328125],[-4.525683593749989,52.95820312499998],[-4.405078124999932,53.01381835937502],[-4.362207031249994,53.05605468750002],[-4.328417968749932,53.105126953124994],[-4.2685546875,53.14453125000003],[-4.111035156249983,53.21894531249998],[-3.809277343749955,53.30268554687501],[-3.764208984374932,53.30761718750003],[-3.645898437499966,53.29790039062499],[-3.529589843749989,53.310546875],[-3.427734374999943,53.340673828125006],[-3.326171874999943,53.34716796875],[-3.097558593749994,53.26030273437499]]],[[[-4.196777343749943,53.321435546874994],[-4.15488281249992,53.302832031250034],[-4.049365234374932,53.305761718750006],[-4.084277343749932,53.264306640624994],[-4.200390624999955,53.21806640624999],[-4.278613281250017,53.17241210937502],[-4.373046874999972,53.13417968750005],[-4.418847656249966,53.17802734375002],[-4.47197265624996,53.176367187500034],[-4.55322265625,53.26044921875001],[-4.567871093749972,53.38647460937503],[-4.461718750000017,53.419287109375034],[-4.315087890624966,53.41723632812497],[-4.196777343749943,53.321435546874994]]]]}}]}